#aV2009  9 20  0  0   .00000000      96 DD+AD WGS84 FIT  NGA
## 1550       .00000000   900.00000000 55094  .0000000000000
+   32     1  2  3  4  5  6  7  8  9 10 11 12 13 14 15 16 17
+         18 19 20 21 22 23 24 25 26 27 28 29 30 31 32  0  0
+          0  0  0  0  0  0  0  0  0  0  0  0  0  0  0  0  0
+          0  0  0  0  0  0  0  0  0  0  0  0  0  0  0  0  0
+          0  0  0  0  0  0  0  0  0  0  0  0  0  0  0  0  0
++         0  0  0  0  0  0  0  0  0  0  0  0  0  0  0  0  0
++         0  0  0  0  0  0  0  0  0  0  0  0  0  0  0  0  0
++         0  0  0  0  0  0  0  0  0  0  0  0  0  0  0  0  0
++         0  0  0  0  0  0  0  0  0  0  0  0  0  0  0  0  0
++         0  0  0  0  0  0  0  0  0  0  0  0  0  0  0  0  0
%c cc cc ccc ccc cccc cccc cccc cccc ccccc ccccc ccccc ccccc
%c cc cc ccc ccc cccc cccc cccc cccc ccccc ccccc ccccc ccccc
%f  0.0000000  0.000000000  0.00000000000  0.000000000000000
%f  0.0000000  0.000000000  0.00000000000  0.000000000000000
%i    0    0    0    0      0      0      0      0         0
%i    0    0    0    0      0      0      0      0         0
/*      NGA, ST. LOUIS,MO.                                  
/*   EPHEMERIS COMPUTED FROM  3 DAYS OF DATA                
/* CCCCCCCCCCCCCCCCCCCCCCCCCCCCCCCCCCCCCCCCCCCCCCCCCCCCCCCCC
/* CCCCCCCCCCCCCCCCCCCCCCCCCCCCCCCCCCCCCCCCCCCCCCCCCCCCCCCCC
*  2009  9 20 11 30   .00000000                                                 
P  1  15784.544966  -5000.797274  20643.615461    -58.141329                    
V  1  -4579.571686  26084.043322   9871.726554      -.007354                    
P  2   9346.233872  21201.672095  13283.153211    173.929817                    
V  2 -14240.561757  -9362.418374  24404.165362       .030942                    
P  3  -6401.173971 -14779.333985 -21451.020773    449.674755                    
V  3  24334.673890 -10758.745456    510.260384       .051168                    
P  4  -1560.348873  17794.934839  19401.616698   -274.084741                    
V  4 -19629.782057 -15769.590827  13156.082567      -.173768                    
P  5   3789.720828  23256.514080 -12313.819589    -85.972868                    
V  5  -5542.809712  14696.315098  26241.767275       .110553                    
P  6  -1315.514529 -16025.832317 -20947.368026    241.998140                    
V  6  25670.242926  -8822.946754   5181.183723       .060169                    
P  7 -19638.602606  -1249.747220 -17927.435173     11.128088                    
V  7 -15796.615400 -16289.570709  18313.736147      -.007101                    
P  8 -11148.564676   9449.546809 -22226.475466   -222.009045                    
V  8 -19600.480755 -20041.183191    808.325259      -.015067                    
P  9  21187.426042  15712.735263   2674.862910     78.525293                    
V  9   1716.712844   4457.283139 -31858.263518       .021367                    
P 10   2791.058422  23559.205680 -11752.536617    -23.982245                    
V 10  -6130.125507  13744.621083  26796.366150      -.008666                    
P 11 -24281.426457 -10597.130533   3496.575884    -20.502340                    
V 11  -1782.064782  -6385.161568 -29442.324035      -.017350                    
P 12  12869.988842   9515.246572  21269.855678   -216.184516                    
V 12  -6455.027135  26055.854295  -7649.464675       .056418                    
P 13 -25875.187572   5958.888622    830.982764    304.837291                    
V 13    748.888536  -1966.732236  32453.085375       .004339                    
P 14  17732.578416 -14238.013951  13741.464255    -48.412883                    
V 14  17039.295879  -3018.075816 -25482.555693       .051713                    
P 15  13724.009069  10444.059288 -20191.061542   -318.722703                    
V 15 -24031.689857   9157.814477 -11511.303100      -.009893                    
P 16   1853.304360 -25613.301543  -6206.732309     10.835446                    
V 16   4478.579796  -7131.053010  30775.898549      -.039143                    
P 17 -17472.575568  14881.518505  13269.004198     86.446864                    
V 17 -16786.660079   2519.602195 -25259.646481       .031184                    
P 18  15932.652033 -11631.848276 -17355.964604     14.213612                    
V 18  -3239.780957  22623.328275 -18256.503383       .028081                    
P 19 -15369.903645 -10196.649826 -19161.468612      9.968664                    
V 19  23404.167998  -6836.650446 -14829.398739      -.016983                    
P 20 -14620.148992  -6043.428385  21217.284130     71.849079                    
V 20   5526.285239 -26738.846800  -3740.139472      -.009013                    
P 21  18309.930248  -2118.696197 -19047.426471    -10.283041                    
V 21  17040.245754  17917.913470  13554.528628      -.022807                    
P 22  12015.216628 -21992.262511  -8509.690045    190.578553                    
V 22    520.192851  11576.629179 -28700.543273      -.010227                    
P 23 -22787.171497  -2679.952634  13604.564013    388.386955                    
V 23  15891.413168  -6810.935412  24913.326832      -.003763                    
P 24  21541.014908  10520.920404 -11030.677724    222.095989                    
V 24   7992.306961  12217.121040  27209.599234       .030749                    
P 25 -22495.803084  -6800.300550 -11848.250927    601.519433                    
V 25 -11086.293720 -11258.612300  26935.436858       .145370                    
P 26  23943.485924 -10145.326955   6012.132895     62.271749                    
V 26   8316.029278   -632.566635 -30920.649269      -.010708                    
P 27  20490.987898  16890.946642   -282.089851     84.308070                    
V 27  -2393.046599   1066.584391 -32071.910522       .032747                    
P 28 -12702.234105  20322.211644 -10660.017891    -26.130991                    
V 28    944.501089 -14503.963427 -27951.743981       .000695                    
P 29  25851.769578  -4569.457981   3965.145461     59.119207                    
V 29  -3951.783088   4067.719064  31245.218856       .033399                    
P 30  15607.509245  -3250.926410  20848.141112    178.443147                    
V 30  -3937.082993  27136.751810   7114.275150       .030986                    
P 31   -887.496247 -18459.497637  19229.841495    -64.130668                    
V 31  18553.641303  15257.822191  15808.932751       .005155                    
P 32 -10123.980652 -14717.227403  20129.748773    193.109901                    
V 32   8171.181696 -23252.100198 -12867.983107      -.071572                    
EOF
